[{"OBJECT_NAME":"STARLINK-3915","OBJECT_ID":"2022-051AX","EPOCH":"2026-03-09T09:49:19.409952","MEAN_MOTION":15.08845824,"ECCENTRICITY":0.00012362,"INCLINATION":53.2163,"RA_OF_ASC_NODE":120.3814,"ARG_OF_PERICENTER":90.897,"MEAN_ANOMALY":269.2164,"EPHEMERIS_TYPE":0,"CLASSIFICATION_TYPE":"U","NORAD_CAT_ID":52581,"ELEMENT_SET_NO":999,"REV_AT_EPOCH":21154,"BSTAR":8.9170551e-5,"MEAN_MOTION_DOT":1.132e-5,"MEAN_MOTION_DDOT":0},{"OBJECT_NAME":"CZ-4B DEB","OBJECT_ID":"2006-015E","EPOCH":"2026-03-09T20:34:53.082912","MEAN_MOTION":15.19885806,"ECCENTRICITY":0.00461993,"INCLINATION":98.0565,"RA_OF_ASC_NODE":201.7753,"ARG_OF_PERICENTER":62.4887,"MEAN_ANOMALY":298.1031,"EPHEMERIS_TYPE":0,"CLASSIFICATION_TYPE":"U","NORAD_CAT_ID":29538,"ELEMENT_SET_NO":999,"REV_AT_EPOCH":5389,"BSTAR":0.0022587151,"MEAN_MOTION_DOT":0.00050103,"MEAN_MOTION_DDOT":0}]
